{"type": "FeatureCollection", "features": [ {"type": "Feature", "properties": {"norad_id": 66469, "name": "STARLINK-35451", "group": "last-30-days", "lat": 29.10481356716078, "lon": -97.14682309529441, "alt_km": 397.6321427179755, "timestamp": "2025-12-04T10:51:48.875758+00:00", "meta": {"OBJECT_NAME": "STARLINK-35451", "OBJECT_ID": "2025-262P", "EPOCH": "2025-12-04T04:00:03.000096", "MEAN_MOTION": 15.56651845, "ECCENTRICITY": 0.0001621, "INCLINATION": 42.9995, "RA_OF_ASC_NODE": 121.2258, "ARG_OF_PERICENTER": 272.88, "MEAN_ANOMALY": 57.8967, "EPHEMERIS_TYPE": 0, "CLASSIFICATION_TYPE": "U", "NORAD_CAT_ID": 66469, "ELEMENT_SET_NO": 999, "REV_AT_EPOCH": 426, "BSTAR": -0.033451, "MEAN_MOTION_DOT": -0.021701, "MEAN_MOTION_DDOT": 0}, "tle": {"line1": "1 66469U 25262P   25338.16670139 -.02170100  00000+0 -33451-1 0  9991", "line2": "2 66469  42.9995 121.2258 0001621 272.8800  57.8967 15.56651845  4269"}}, "geometry": {"type": "Point", "coordinates": [-97.14682309529441, 29.10481356716078]}}, {"type": "Feature", "properties": {"norad_id": 66470, "name": "STARLINK-35655", "group": "last-30-days", "lat": 31.1511659443838, "lon": -100.89195863510311, "alt_km": 397.43609177411145, "timestamp": "2025-12-04T10:51:48.875768+00:00", "meta": {"OBJECT_NAME": "STARLINK-35655", "OBJECT_ID": "2025-262Q", "EPOCH": "2025-12-04T04:00:03.000096", "MEAN_MOTION": 15.56648745, "ECCENTRICITY": 0.0001767, "INCLINATION": 42.9995, "RA_OF_ASC_NODE": 121.2366, "ARG_OF_PERICENTER": 272.7986, "MEAN_ANOMALY": 54.1451, "EPHEMERIS_TYPE": 0, "CLASSIFICATION_TYPE": "U", "NORAD_CAT_ID": 66470, "ELEMENT_SET_NO": 999, "REV_AT_EPOCH": 426, "BSTAR": -0.033389, "MEAN_MOTION_DOT": -0.02166418, "MEAN_MOTION_DDOT": 0}, "tle": {"line1": "1 66470U 25262Q   25338.16670139 -.02166418  00000+0 -33389-1 0  9990", "line2": "2 66470  42.9995 121.2366 0001767 272.7986  54.1451 15.56648745  4269"}}, "geometry": {"type": "Point", "coordinates": [-100.89195863510311, 31.1511659443838]}}, {"type": "Feature", "properties": {"norad_id": 66471, "name": "STARLINK-35569", "group": "last-30-days", "lat": 30.141122934921693, "lon": -98.99969548499811, "alt_km": 397.4620639119321, "timestamp": "2025-12-04T10:51:48.875779+00:00", "meta": {"OBJECT_NAME": "STARLINK-35569", "OBJECT_ID": "2025-262R", "EPOCH": "2025-12-04T04:00:03.000096", "MEAN_MOTION": 15.56650236, "ECCENTRICITY": 0.0001691, "INCLINATION": 42.9995, "RA_OF_ASC_NODE": 121.231, "ARG_OF_PERICENTER": 268.5766, "MEAN_ANOMALY": 60.2858, "EPHEMERIS_TYPE": 0, "CLASSIFICATION_TYPE": "U", "NORAD_CAT_ID": 66471, "ELEMENT_SET_NO": 999, "REV_AT_EPOCH": 426, "BSTAR": -0.033436, "MEAN_MOTION_DOT": -0.02169206, "MEAN_MOTION_DDOT": 0}, "tle": {"line1": "1 66471U 25262R   25338.16670139 -.02169206  00000+0 -33436-1 0  9992", "line2": "2 66471  42.9995 121.2310 0001691 268.5766  60.2858 15.56650236  4261"}}, "geometry": {"type": "Point", "coordinates": [-98.99969548499811, 30.141122934921693]}}, {"type": "Feature", "properties": {"norad_id": 66472, "name": "STARLINK-35567", "group": "last-30-days", "lat": 28.04405084684591, "lon": -95.33176561751759, "alt_km": 397.7681312736904, "timestamp": "2025-12-04T10:51:48.875788+00:00", "meta": {"OBJECT_NAME": "STARLINK-35567", "OBJECT_ID": "2025-262S", "EPOCH": "2025-12-04T04:00:03.000096", "MEAN_MOTION": 15.56652066, "ECCENTRICITY": 0.0001706, "INCLINATION": 42.9996, "RA_OF_ASC_NODE": 121.2212, "ARG_OF_PERICENTER": 269.8745, "MEAN_ANOMALY": 62.8203, "EPHEMERIS_TYPE": 0, "CLASSIFICATION_TYPE": "U", "NORAD_CAT_ID": 66472, "ELEMENT_SET_NO": 999, "REV_AT_EPOCH": 426, "BSTAR": -0.033461, "MEAN_MOTION_DOT": -0.02170748, "MEAN_MOTION_DDOT": 0}, "tle": {"line1": "1 66472U 25262S   25338.16670139 -.02170748  00000+0 -33461-1 0  9994", "line2": "2 66472  42.9996 121.2212 0001706 269.8745  62.8203 15.56652066  4267"}}, "geometry": {"type": "Point", "coordinates": [-95.33176561751759, 28.04405084684591]}}, {"type": "Feature", "properties": {"norad_id": 66473, "name": "STARLINK-35568", "group": "last-30-days", "lat": 26.959347985730815, "lon": -93.55251310232126, "alt_km": 397.9291248687232, "timestamp": "2025-12-04T10:51:48.875798+00:00", "meta": {"OBJECT_NAME": "STARLINK-35568", "OBJECT_ID": "2025-262T", "EPOCH": "2025-12-04T04:00:03.000096", "MEAN_MOTION": 15.56649916, "ECCENTRICITY": 0.0001698, "INCLINATION": 42.9995, "RA_OF_ASC_NODE": 121.2163, "ARG_OF_PERICENTER": 271.0409, "MEAN_ANOMALY": 63.5717, "EPHEMERIS_TYPE": 0, "CLASSIFICATION_TYPE": "U", "NORAD_CAT_ID": 66473, "ELEMENT_SET_NO": 999, "REV_AT_EPOCH": 426, "BSTAR": -0.033411, "MEAN_MOTION_DOT": -0.02167764, "MEAN_MOTION_DDOT": 0}, "tle": {"line1": "1 66473U 25262T   25338.16670139 -.02167764  00000+0 -33411-1 0  9994", "line2": "2 66473  42.9995 121.2163 0001698 271.0409  63.5717 15.56649916  4262"}}, "geometry": {"type": "Point", "coordinates": [-93.55251310232126, 26.959347985730815]}}, {"type": "Feature", "properties": {"norad_id": 66474, "name": "STARLINK-35620", "group": "last-30-days", "lat": 25.851840206509895, "lon": -91.806708383379, "alt_km": 397.9686021763637, "timestamp": "2025-12-04T10:51:48.875810+00:00", "meta": {"OBJECT_NAME": "STARLINK-35620", "OBJECT_ID": "2025-262U", "EPOCH": "2025-12-04T04:00:03.000096", "MEAN_MOTION": 15.56652203, "ECCENTRICITY": 0.0001619, "INCLINATION": 42.9994, "RA_OF_ASC_NODE": 121.2111, "ARG_OF_PERICENTER": 267.1718, "MEAN_ANOMALY": 69.3587, "EPHEMERIS_TYPE": 0, "CLASSIFICATION_TYPE": "U", "NORAD_CAT_ID": 66474, "ELEMENT_SET_NO": 999, "REV_AT_EPOCH": 426, "BSTAR": -0.033477, "MEAN_MOTION_DOT": -0.02171642, "MEAN_MOTION_DDOT": 0}, "tle": {"line1": "1 66474U 25262U   25338.16670139 -.02171642  00000+0 -33477-1 0  9997", "line2": "2 66474  42.9994 121.2111 0001619 267.1718  69.3587 15.56652203  4269"}}, "geometry": {"type": "Point", "coordinates": [-91.806708383379, 25.851840206509895]}}, {"type": "Feature", "properties": {"norad_id": 66475, "name": "STARLINK-35538", "group": "last-30-days", "lat": 24.724910758846004, "lon": -90.09401883513098, "alt_km": 398.15275831622057, "timestamp": "2025-12-04T10:51:48.875822+00:00", "meta": {"OBJECT_NAME": "STARLINK-35538", "OBJECT_ID": "2025-262V", "EPOCH": "2025-12-04T04:00:03.000096", "MEAN_MOTION": 15.56648528, "ECCENTRICITY": 0.0001653, "INCLINATION": 42.9995, "RA_OF_ASC_NODE": 121.2071, "ARG_OF_PERICENTER": 268.2169, "MEAN_ANOMALY": 70.2324, "EPHEMERIS_TYPE": 0, "CLASSIFICATION_TYPE": "U", "NORAD_CAT_ID": 66475, "ELEMENT_SET_NO": 999, "REV_AT_EPOCH": 426, "BSTAR": -0.033399, "MEAN_MOTION_DOT": -0.02166908, "MEAN_MOTION_DDOT": 0}, "tle": {"line1": "1 66475U 25262V   25338.16670139 -.02166908  00000+0 -33399-1 0  9990", "line2": "2 66475  42.9995 121.2071 0001653 268.2169  70.2324 15.56648528  4261"}}, "geometry": {"type": "Point", "coordinates": [-90.09401883513098, 24.724910758846004]}}, {"type": "Feature", "properties": {"norad_id": 66476, "name": "STARLINK-35372", "group": "last-30-days", "lat": 23.57907147097006, "lon": -88.41403512342278, "alt_km": 398.2749170546613, "timestamp": "2025-12-04T10:51:48.875833+00:00", "meta": {"OBJECT_NAME": "STARLINK-35372", "OBJECT_ID": "2025-262W", "EPOCH": "2025-12-04T04:00:03.000096", "MEAN_MOTION": 15.56651552, "ECCENTRICITY": 0.000168, "INCLINATION": 42.9995, "RA_OF_ASC_NODE": 121.202, "ARG_OF_PERICENTER": 266.4286, "MEAN_ANOMALY": 73.9355, "EPHEMERIS_TYPE": 0, "CLASSIFICATION_TYPE": "U", "NORAD_CAT_ID": 66476, "ELEMENT_SET_NO": 999, "REV_AT_EPOCH": 415, "BSTAR": -0.033447, "MEAN_MOTION_DOT": -0.02169912, "MEAN_MOTION_DDOT": 0}, "tle": {"line1": "1 66476U 25262W   25338.16670139 -.02169912  00000+0 -33447-1 0  9993", "line2": "2 66476  42.9995 121.2020 0001680 266.4286  73.9355 15.56651552  4159"}}, "geometry": {"type": "Point", "coordinates": [-88.41403512342278, 23.57907147097006]}}, {"type": "Feature", "properties": {"norad_id": 66477, "name": "STARLINK-35354", "group": "last-30-days", "lat": 21.23393484102407, "lon": -85.1391493333864, "alt_km": 398.6690655243865, "timestamp": "2025-12-04T10:51:48.875842+00:00", "meta": {"OBJECT_NAME": "STARLINK-35354", "OBJECT_ID": "2025-262X", "EPOCH": "2025-12-04T04:00:03.000096", "MEAN_MOTION": 15.56649461, "ECCENTRICITY": 0.0001703, "INCLINATION": 42.9996, "RA_OF_ASC_NODE": 121.1915, "ARG_OF_PERICENTER": 270.2719, "MEAN_ANOMALY": 73.9275, "EPHEMERIS_TYPE": 0, "CLASSIFICATION_TYPE": "U", "NORAD_CAT_ID": 66477, "ELEMENT_SET_NO": 999, "REV_AT_EPOCH": 426, "BSTAR": -0.033418, "MEAN_MOTION_DOT": -0.02168084, "MEAN_MOTION_DDOT": 0}, "tle": {"line1": "1 66477U 25262X   25338.16670139 -.02168084  00000+0 -33418-1 0  9991", "line2": "2 66477  42.9996 121.1915 0001703 270.2719  73.9275 15.56649461  4262"}}, "geometry": {"type": "Point", "coordinates": [-85.1391493333864, 21.23393484102407]}}, {"type": "Feature", "properties": {"norad_id": 66478, "name": "STARLINK-35283", "group": "last-30-days", "lat": 20.038374523784146, "lon": -83.54236213885204, "alt_km": 398.73258424477353, "timestamp": "2025-12-04T10:51:48.875878+00:00", "meta": {"OBJECT_NAME": "STARLINK-35283", "OBJECT_ID": "2025-262Y", "EPOCH": "2025-12-04T04:00:03.000096", "MEAN_MOTION": 15.56651069, "ECCENTRICITY": 0.0001719, "INCLINATION": 42.9998, "RA_OF_ASC_NODE": 121.1863, "ARG_OF_PERICENTER": 265.9327, "MEAN_ANOMALY": 80.1829, "EPHEMERIS_TYPE": 0, "CLASSIFICATION_TYPE": "U", "NORAD_CAT_ID": 66478, "ELEMENT_SET_NO": 999, "REV_AT_EPOCH": 426, "BSTAR": -0.033439, "MEAN_MOTION_DOT": -0.02169437, "MEAN_MOTION_DDOT": 0}, "tle": {"line1": "1 66478U 25262Y   25338.16670139 -.02169437  00000+0 -33439-1 0  9998", "line2": "2 66478  42.9998 121.1863 0001719 265.9327  80.1829 15.56651069  4262"}}, "geometry": {"type": "Point", "coordinates": [-83.54236213885204, 20.038374523784146]}}]}